$$SOE
2460147.500000000, A.D. 2023-Jul-22 00:00:00.0000, 3.064049970500432E+08, -2.366271585683694E+08, -1.453301409279242E+07,
2460154.500000000, A.D. 2023-Jul-29 00:00:00.0000, 3.129825174526489E+08, -2.264527764522204E+08, -1.472574004552135E+07,
2460161.500000000, A.D. 2023-Aug-05 00:00:00.0000, 3.192970692206925E+08, -2.160881065909338E+08, -1.490609291284752E+07,
2460168.500000000, A.D. 2023-Aug-12 00:00:00.0000, 3.253417529458643E+08, -2.055407772712195E+08, -1.507384665289307E+07,
2460175.500000000, A.D. 2023-Aug-19 00:00:00.0000, 3.311099414635378E+08, -1.948187424527673E+08, -1.522878905379574E+07,
2460182.500000000, A.D. 2023-Aug-26 00:00:00.0000, 3.365952997144005E+08, -1.839302698644577E+08, -1.537072245788997E+07,
2460189.500000000, A.D. 2023-Sep-02 00:00:00.0000, 3.417918039479105E+08, -1.728839276846881E+08, -1.549946445256520E+07,
2460196.500000000, A.D. 2023-Sep-09 00:00:00.0000, 3.466937601692616E+08, -1.616885698784412E+08, -1.561484852911385E+07,
2460203.500000000, A.D. 2023-Sep-16 00:00:00.0000, 3.512958218689520E+08, -1.503533202954570E+08, -1.571672472475969E+07,
2460210.500000000, A.D. 2023-Sep-23 00:00:00.0000, 3.555930073283778E+08, -1.388875553046226E+08, -1.580496025796600E+07,
2460217.500000000, A.D. 2023-Sep-30 00:00:00.0000, 3.595807160473211E+08, -1.273008838524007E+08, -1.587944002410774E+07,
2460224.500000000, A.D. 2023-Oct-07 00:00:00.0000, 3.632547418315020E+08, -1.156031255843593E+08, -1.594006677595184E+07,
2460231.500000000, A.D. 2023-Oct-14 00:00:00.0000, 3.666112834734182E+08, -1.038042904508141E+08, -1.598676135166261E+07,
2460238.500000000, A.D. 2023-Oct-21 00:00:00.0000, 3.696469561547884E+08, -9.191455830771881E+07, -1.601946311237688E+07,
2460245.500000000, A.D. 2023-Oct-28 00:00:00.0000, 3.723588020600164E+08, -7.994425637510017E+07, -1.603813027117638E+07,
2460252.500000000, A.D. 2023-Nov-04 00:00:00.0000, 3.747442988784240E+08, -6.790383545537715E+07, -1.604274005947989E+07,
2460259.500000000, A.D. 2023-Nov-11 00:00:00.0000, 3.768013663138937E+08, -5.580384565061260E+07, -1.603328879451099E+07,
2460266.500000000, A.D. 2023-Nov-18 00:00:00.0000, 3.785283707767698E+08, -4.365491178747818E+07, -1.600979187222642E+07,
2460273.500000000, A.D. 2023-Nov-25 00:00:00.0000, 3.799241283014074E+08, -3.146770867558994E+07, -1.597228369021547E+07,
2460280.500000000, A.D. 2023-Dec-02 00:00:00.0000, 3.809879057038581E+08, -1.925293636081809E+07, -1.592081750445596E+07,
2460287.500000000, A.D. 2023-Dec-09 00:00:00.0000, 3.817194200595266E+08, -7.021295583739053E+06, -1.585546523302864E+07,
2460294.500000000, A.D. 2023-Dec-16 00:00:00.0000, 3.821188368044431E+08, 5.216536418718530E+06, -1.577631723407786E+07,
2460301.500000000, A.D. 2023-Dec-23 00:00:00.0000, 3.821867668369289E+08, 1.744993030967487E+07, -1.568348203630960E+07,
2460308.500000000, A.D. 2023-Dec-30 00:00:00.0000, 3.819242613246590E+08, 2.966833015787696E+07, -1.557708581614782E+07,
2460315.500000000, A.D. 2024-Jan-06 00:00:00.0000, 3.813328025096968E+08, 4.186127755755786E+07, -1.545727165551623E+07,
2460322.500000000, A.D. 2024-Jan-13 00:00:00.0000, 3.804142937575279E+08, 5.401843242549175E+07, -1.532419902346555E+07,
2460329.500000000, A.D. 2024-Jan-20 00:00:00.0000, 3.791710501534364E+08, 6.612959344153769E+07, -1.517804334646819E+07,
2460336.500000000, A.D. 2024-Jan-27 00:00:00.0000, 3.776057877099602E+08, 7.818471867863865E+07, -1.501899543282468E+07,
2460343.500000000, A.D. 2024-Feb-03 00:00:00.0000, 3.757216108599843E+08, 9.017394537788552E+07, -1.484726079458592E+07,
2460350.500000000, A.D. 2024-Feb-10 00:00:00.0000, 3.735219986227614E+08, 1.020876084932092E+08, -1.466305892162965E+07,
2460357.500000000, A.D. 2024-Feb-17 00:00:00.0000, 3.710107896968842E+08, 1.139162579417085E+08, -1.446662252547405E+07,
2460364.500000000, A.D. 2024-Feb-24 00:00:00.0000, 3.681921666355608E+08, 1.256506745153296E+08, -1.425819676045550E+07,
2460371.500000000, A.D. 2024-Mar-02 00:00:00.0000, 3.650706392558171E+08, 1.372818843753047E+08, -1.403803843312465E+07,
2460378.500000000, A.D. 2024-Mar-09 00:00:00.0000, 3.616510275444687E+08, 1.488011720331193E+08, -1.380641522320285E+07,
2460385.500000000, A.D. 2024-Mar-16 00:00:00.0000, 3.579384445799710E+08, 1.602000919931950E+08, -1.356360494170786E+07,
2460392.500000000, A.D. 2024-Mar-23 00:00:00.0000, 3.539382794856076E+08, 1.714704801550976E+08, -1.330989473132797E+07,
2460399.500000000, A.D. 2024-Mar-30 00:00:00.0000, 3.496561782881116E+08, 1.826044649526610E+08, -1.304558001014437E+07,
2460406.500000000, A.D. 2024-Apr-06 00:00:00.0000, 3.450980230567932E+08, 1.935944748793809E+08, -1.277096346193020E+07,
2460413.500000000, A.D. 2024-Apr-13 00:00:00.0000, 3.402699129878115E+08, 2.044332432578638E+08, -1.248635433521073E+07,
2460420.500000000, A.D. 2024-Apr-20 00:00:00.0000, 3.351781465837961E+08, 2.151138129602494E+08, -1.219206774911498E+07,
2460427.500000000, A.D. 2024-Apr-27 00:00:00.0000, 3.298292035091391E+08, 2.256295405586271E+08, -1.188842391633472E+07,
2460434.500000000, A.D. 2024-May-04 00:00:00.0000, 3.242297263007156E+08, 2.359740992488371E+08, -1.157574735208164E+07,
2460441.500000000, A.D. 2024-May-11 00:00:00.0000, 3.183865022559407E+08, 2.461414804973008E+08, -1.125436610222284E+07,
2460448.500000000, A.D. 2024-May-18 00:00:00.0000, 3.123064456540340E+08, 2.561259944884616E+08, -1.092461099888441E+07,
2460455.500000000, A.D. 2024-May-25 00:00:00.0000, 3.059965803995042E+08, 2.659222694270049E+08, -1.058681494838783E+07,
2460462.500000000, A.D. 2024-Jun-01 00:00:00.0000, 2.994640232042924E+08, 2.755252497047647E+08, -1.024131226323432E+07,
2460469.500000000, A.D. 2024-Jun-08 00:00:00.0000, 2.927159676065007E+08, 2.849301929817079E+08, -9.888438063834056E+06,
2460476.500000000, A.D. 2024-Jun-15 00:00:00.0000, 2.857596692727897E+08, 2.941326667995278E+08, -9.528527743231848E+06,
2460483.500000000, A.D. 2024-Jun-22 00:00:00.0000, 2.786024316186942E+08, 3.031285459727839E+08, -9.161916307510391E+06,
2460490.500000000, A.D. 2024-Jun-29 00:00:00.0000, 2.712515896535366E+08, 3.119140090067122E+08, -8.788937546178371E+06,
2460497.500000000, A.D. 2024-Jul-06 00:00:00.0000, 2.637144947202556E+08, 3.204855311439970E+08, -8.409923477212086E+06,
2460504.500000000, A.D. 2024-Jul-13 00:00:00.0000, 2.559985020991888E+08, 3.288398769322047E+08, -8.025204015190676E+06,
2460511.500000000, A.D. 2024-Jul-20 00:00:00.0000, 2.481109594989884E+08, 3.369740935245013E+08, -7.635106586367682E+06,
2460518.500000000, A.D. 2024-Jul-27 00:00:00.0000, 2.400591957817616E+08, 3.448855038184160E+08, -7.239955708452597E+06,
2460525.500000000, A.D. 2024-Aug-03 00:00:00.0000, 2.318505101946242E+08, 3.525716991203688E+08, -6.840072590283528E+06,
2460532.500000000, A.D. 2024-Aug-10 00:00:00.0000, 2.234921622685633E+08, 3.600305313914528E+08, -6.435774766422421E+06,
2460539.500000000, A.D. 2024-Aug-17 00:00:00.0000, 2.149913624230921E+08, 3.672601051531477E+08, -6.027375768614948E+06,
2460546.500000000, A.D. 2024-Aug-24 00:00:00.0000, 2.063552632921169E+08, 3.742587690845269E+08, -5.615184837784514E+06,
2460553.500000000, A.D. 2024-Aug-31 00:00:00.0000, 1.975909518710929E+08, 3.810251073001582E+08, -5.199506691391915E+06,
2460560.500000000, A.D. 2024-Sep-07 00:00:00.0000, 1.887054428330125E+08, 3.875579304828699E+08, -4.780641368512899E+06,
2460567.500000000, A.D. 2024-Sep-14 00:00:00.0000, 1.797056730793007E+08, 3.938562679115847E+08, -4.358884078286469E+06,
2460574.500000000, A.D. 2024-Sep-21 00:00:00.0000, 1.705984954752979E+08, 3.999193608346604E+08, -3.934524831060857E+06,
2460581.500000000, A.D. 2024-Sep-28 00:00:00.0000, 1.613906712563009E+08, 4.057466539956902E+08, -3.507848069857419E+06,
2460588.500000000, A.D. 2024-Oct-05 00:00:00.0000, 1.520888647486320E+08, 4.113377853504491E+08, -3.079132637368649E+06,
2460595.500000000, A.D. 2024-Oct-12 00:00:00.0000, 1.426996400220124E+08, 4.166925769863133E+08, -2.648651801020592E+06,
2460602.500000000, A.D. 2024-Oct-19 00:00:00.0000, 1.332294576961770E+08, 4.218110269985825E+08, -2.216673196443796E+06,
2460609.500000000, A.D. 2024-Oct-26 00:00:00.0000, 1.236846718421849E+08, 4.266933015458304E+08, -1.783458750540227E+06,
2460616.500000000, A.D. 2024-Nov-02 00:00:00.0000, 1.140715272090658E+08, 4.313397269573327E+08, -1.349264618593425E+06,
2460623.500000000, A.D. 2024-Nov-09 00:00:00.0000, 1.043961568461188E+08, 4.357507819320260E+08, -9.143411413314342E+05,
2460630.500000000, A.D. 2024-Nov-16 00:00:00.0000, 9.466458012085326E+07, 4.399270898453110E+08, -4.789328230532110E+05,
2460637.500000000, A.D. 2024-Nov-23 00:00:00.0000, 8.488270115400344E+07, 4.438694111272415E+08, -4.327833796280622E+04,
2460644.500000000, A.D. 2024-Nov-30 00:00:00.0000, 7.505630785479456E+07, 4.475786356805115E+08, 3.923894139277935E+05,
2460651.500000000, A.D. 2024-Dec-07 00:00:00.0000, 6.519107195129270E+07, 4.510557757681463E+08, 8.278431984187961E+05,
2460658.500000000, A.D. 2024-Dec-14 00:00:00.0000, 5.529254930395228E+07, 4.543019606024526E+08, 1.262861450483263E+06,
2460665.500000000, A.D. 2024-Dec-21 00:00:00.0000, 4.536617816140944E+07, 4.573184313976106E+08, 1.697228501675606E+06,
2460672.500000000, A.D. 2024-Dec-28 00:00:00.0000, 3.541727730620686E+07, 4.601065339197928E+08, 2.130734609553188E+06,
2460679.500000000, A.D. 2025-Jan-04 00:00:00.0000, 2.545104666440184E+07, 4.626677109162659E+08, 2.563175746202201E+06,
2460686.500000000, A.D. 2025-Jan-11 00:00:00.0000, 1.547256853858473E+07, 4.650034960864171E+08, 2.994353449381649E+06,
2460693.500000000, A.D. 2025-Jan-18 00:00:00.0000, 5.486808528693235E+06, 4.671155086751347E+08, 3.424074746296942E+06,
2460700.500000000, A.D. 2025-Jan-25 00:00:00.0000, -4.501383634061869E+06, 4.690054482119346E+08, 3.852152089934528E+06,
2460707.500000000, A.D. 2025-Feb-01 00:00:00.0000, -1.448727316807704E+07, 4.706750893623638E+08, 4.278403289127320E+06,
2460714.500000000, A.D. 2025-Feb-08 00:00:00.0000, -2.446623919587456E+07, 4.721262769070693E+08, 4.702651429601490E+06,
$$EOE